{
  "type": "Feature",
  "properties": {
    "name": "new-route",
    "heightSource": "heightmap",
    "heightUnits": "meters"
  },
  "geometry": {
    "type": "LineString",
    "coordinates": [
      [
        -74.2755378,
        40.7300711,
        36.73
      ],
      [
        -74.275563,
        40.7301202,
        37.36
      ],
      [
        -74.275585,
        40.7301714,
        38.01
      ],
      [
        -74.2756036,
        40.7302247,
        38.51
      ],
      [
        -74.2756213,
        40.7302756,
        38.99
      ],
      [
        -74.2756371,
        40.7303296,
        39.52
      ],
      [
        -74.2756488,
        40.730379,
        40
      ],
      [
        -74.2756566,
        40.7304355,
        40.62
      ],
      [
        -74.2756539,
        40.7304832,
        40.89
      ],
      [
        -74.2756485,
        40.730535,
        41.13
      ],
      [
        -74.2756396,
        40.7305866,
        41.22
      ]
    ]
  }
}