{
  "type": "Feature",
  "properties": {
    "name": "grove to dissonance blvd",
    "heightSource": "heightmap",
    "heightUnits": "meters"
  },
  "geometry": {
    "type": "LineString",
    "coordinates": [
      [
        -74.2598971,
        40.7349157,
        72.92
      ],
      [
        -74.2599713,
        40.7349043,
        72.9
      ],
      [
        -74.2603187,
        40.7348586,
        72.15
      ],
      [
        -74.2729295,
        40.734117,
        47.34
      ],
      [
        -74.2731994,
        40.7340826,
        47.32
      ],
      [
        -74.2735193,
        40.7340419,
        47.55
      ],
      [
        -74.2927932,
        40.7378343,
        160.76
      ],
      [
        -74.2929963,
        40.7378115,
        160.65
      ],
      [
        -74.2934721,
        40.7377226,
        160.76
      ],
      [
        -74.2936938,
        40.7376386,
        160.85
      ],
      [
        -74.2939909,
        40.7373847,
        160.83
      ],
      [
        -74.2940628,
        40.7371565,
        160.56
      ],
      [
        -74.2939112,
        40.7367821,
        160.39
      ],
      [
        -74.2938178,
        40.7366638,
        160.55
      ],
      [
        -74.2936579,
        40.7364664,
        160.81
      ],
      [
        -74.2933322,
        40.7362711,
        162.13
      ],
      [
        -74.2920496,
        40.7366219,
        164.15
      ],
      [
        -74.2915721,
        40.7368928,
        165.5
      ],
      [
        -74.29095,
        40.7372644,
        164.71
      ],
      [
        -74.2904945,
        40.7375147,
        164.07
      ],
      [
        -74.2886913,
        40.7379955,
        166.78
      ],
      [
        -74.2882406,
        40.73812,
        165.43
      ],
      [
        -74.2877408,
        40.7382591,
        160.29
      ],
      [
        -74.2871349,
        40.7383706,
        150.66
      ],
      [
        -74.2863397,
        40.7384334,
        132.76
      ],
      [
        -74.2859567,
        40.7384439,
        129.18
      ],
      [
        -74.2854035,
        40.7384344,
        123.92
      ],
      [
        -74.2851544,
        40.7384236,
        120.61
      ],
      [
        -74.2847028,
        40.7383987,
        115.89
      ],
      [
        -74.2843894,
        40.7383801,
        112.89
      ],
      [
        -74.2830685,
        40.7383019,
        99.3
      ],
      [
        -74.2826622,
        40.7382778,
        95.9
      ],
      [
        -74.2824481,
        40.7382651,
        94.25
      ],
      [
        -74.2819965,
        40.7382384,
        91.75
      ],
      [
        -74.2817532,
        40.738224,
        91.14
      ],
      [
        -74.2813426,
        40.7381996,
        89.35
      ],
      [
        -74.2809555,
        40.7381767,
        87.79
      ],
      [
        -74.2805364,
        40.7381518,
        86.67
      ],
      [
        -74.2802273,
        40.7381335,
        85.43
      ],
      [
        -74.2799863,
        40.7381192,
        84.06
      ],
      [
        -74.2791546,
        40.7380682,
        79.57
      ],
      [
        -74.2788038,
        40.7380455,
        78.44
      ],
      [
        -74.2785613,
        40.7380298,
        75.16
      ],
      [
        -74.2781105,
        40.7380047,
        69.2
      ],
      [
        -74.2776628,
        40.7379985,
        66.13
      ],
      [
        -74.2774858,
        40.738004,
        64.54
      ],
      [
        -74.2770735,
        40.738023,
        62.37
      ],
      [
        -74.2767216,
        40.73806,
        60.77
      ],
      [
        -74.2763487,
        40.7381234,
        58.07
      ],
      [
        -74.2760109,
        40.73819,
        56.93
      ],
      [
        -74.2756221,
        40.7382879,
        55.13
      ],
      [
        -74.2753303,
        40.7383711,
        54.77
      ],
      [
        -74.2750711,
        40.7384605,
        53.43
      ],
      [
        -74.2747859,
        40.7385647,
        52.75
      ],
      [
        -74.2744167,
        40.7387119,
        51.56
      ],
      [
        -74.2740597,
        40.7388622,
        50.41
      ],
      [
        -74.2738262,
        40.7389333,
        50.29
      ],
      [
        -74.2733579,
        40.7390486,
        50.51
      ],
      [
        -74.2730599,
        40.7391053,
        50.71
      ],
      [
        -74.2727586,
        40.7391462,
        50.73
      ],
      [
        -74.2724359,
        40.739181,
        51.54
      ],
      [
        -74.2719523,
        40.7392127,
        53.34
      ],
      [
        -74.2716403,
        40.7392218,
        54.87
      ],
      [
        -74.2713368,
        40.7392233,
        56.3
      ],
      [
        -74.2709776,
        40.7392144,
        57.57
      ],
      [
        -74.2705931,
        40.7391995,
        59.32
      ],
      [
        -74.2702521,
        40.7391874,
        59.77
      ],
      [
        -74.269943,
        40.7391811,
        59.3
      ],
      [
        -74.2694486,
        40.7391734,
        53.23
      ],
      [
        -74.2690674,
        40.7391675,
        46.72
      ],
      [
        -74.2688848,
        40.739164,
        41.66
      ],
      [
        -74.2687942,
        40.7391621,
        40.1
      ],
      [
        -74.2685503,
        40.739157,
        39.93
      ],
      [
        -74.2681878,
        40.7391495,
        39.58
      ],
      [
        -74.2677332,
        40.7391399,
        39.37
      ],
      [
        -74.2673838,
        40.7391326,
        41.08
      ],
      [
        -74.2671048,
        40.7391268,
        41.65
      ],
      [
        -74.2667505,
        40.7391194,
        42.11
      ],
      [
        -74.2663729,
        40.7391115,
        42.33
      ],
      [
        -74.2660285,
        40.7391042,
        41.19
      ],
      [
        -74.2656789,
        40.7390969,
        42.72
      ],
      [
        -74.2652543,
        40.739088,
        43.19
      ],
      [
        -74.2649491,
        40.7390816,
        45.29
      ],
      [
        -74.2645743,
        40.7390738,
        46.53
      ],
      [
        -74.264175,
        40.7390654,
        48.21
      ],
      [
        -74.2638698,
        40.739059,
        49.36
      ],
      [
        -74.2635576,
        40.7390524,
        50.04
      ],
      [
        -74.26318,
        40.7390445,
        51.04
      ],
      [
        -74.2628528,
        40.7390385,
        52.69
      ],
      [
        -74.2624379,
        40.7390408,
        56.99
      ],
      [
        -74.2621286,
        40.7390486,
        58.28
      ],
      [
        -74.2617881,
        40.7390591,
        60.01
      ],
      [
        -74.2613991,
        40.7390707,
        62.45
      ],
      [
        -74.261076,
        40.7390802,
        64.55
      ],
      [
        -74.2607006,
        40.7390902,
        67.8
      ],
      [
        -74.2601451,
        40.7391044,
        70.34
      ],
      [
        -74.2599724,
        40.7391088,
        71.41
      ],
      [
        -74.2595846,
        40.7391187,
        71.78
      ],
      [
        -74.2593058,
        40.7391259,
        71.84
      ],
      [
        -74.2588935,
        40.7391364,
        71.85
      ],
      [
        -74.2584419,
        40.7391479,
        71.65
      ],
      [
        -74.2582321,
        40.7391533,
        71.67
      ],
      [
        -74.2581202,
        40.7391562,
        71.82
      ],
      [
        -74.2579539,
        40.7391604,
        72
      ],
      [
        -74.2576076,
        40.7391693,
        71.94
      ],
      [
        -74.2572204,
        40.7391791,
        72.33
      ],
      [
        -74.2570797,
        40.7391888,
        72.79
      ]
    ]
  }
}